[
    {
        "Altitude(m)": 610399.568642119,
        "Argument of Periapsis(deg)": 0.0,
        "Eccentricity": 0.0,
        "Inclination(deg)": 60.0,
        "Latitude(deg)": 52.11144475441571,
        "Longitude(deg)": 57.58420711069592,
        "Mean Anomaly(deg)": 65.45450000000001,
        "RAAN(deg)": 110.00000000000001,
        "Satellite Name": "Test1 488",
        "Satellite Number": 488,
        "Semi-Major Axis(m)": 6980739.136638005,
        "Time(s)": 0
    },
    {
        "Altitude(m)": 610481.7199761342,
        "Argument of Periapsis(deg)": 0.00010418945913296404,
        "Eccentricity": 0.0,
        "Inclination(deg)": 60.0,
        "Latitude(deg)": 52.47104804306821,
        "Longitude(deg)": 58.36634399366289,
        "Mean Anomaly(deg)": 66.07460614546183,
        "RAAN(deg)": 109.99957995086025,
        "Satellite Name": "Test1 488",
        "Satellite Number": 488,
        "Semi-Major Axis(m)": 6980739.136638005,
        "Time(s)": 10
    }
]